STARLINK-1133
1 25064C 20006W   21325.06860054  .00001683  00000-0  11274-3 0  3258
2 25064  53.0518 112.9156 0001388  85.5930 307.8556 15.06402127    11
